CCSDS_OMM_VERS = 2.0
CREATION_DATE  = 
ORIGINATOR     = 

OBJECT_NAME    = STARLINK-36861
OBJECT_ID      = 2026-037C
CENTER_NAME    = EARTH
REF_FRAME      = TEME
TIME_SYSTEM    = UTC
MEAN_ELEMENT_THEORY = SGP/SGP4

EPOCH          = 2026-03-10T04:00:01.999584
MEAN_MOTION    = 15.82000083
ECCENTRICITY   = .0001923
INCLINATION    = 42.9987
RA_OF_ASC_NODE = 195.6325
ARG_OF_PERICENTER = 244.3383
MEAN_ANOMALY   = 235.7646

EPHEMERIS_TYPE = 0
CLASSIFICATION_TYPE = U
NORAD_CAT_ID   = 67934
ELEMENT_SET_NO = 999
REV_AT_EPOCH   = 327
BSTAR          = -.90541E-4
MEAN_MOTION_DOT = -.19542E-3
MEAN_MOTION_DDOT = 0

CCSDS_OMM_VERS = 2.0
CREATION_DATE  = 
ORIGINATOR     = 

OBJECT_NAME    = STARLINK-36860
OBJECT_ID      = 2026-037D
CENTER_NAME    = EARTH
REF_FRAME      = TEME
TIME_SYSTEM    = UTC
MEAN_ELEMENT_THEORY = SGP/SGP4

EPOCH          = 2026-03-10T04:00:01.999584
MEAN_MOTION    = 15.82002362
ECCENTRICITY   = .0001789
INCLINATION    = 42.9988
RA_OF_ASC_NODE = 195.6222
ARG_OF_PERICENTER = 248.4570
MEAN_ANOMALY   = 235.9107

EPHEMERIS_TYPE = 0
CLASSIFICATION_TYPE = U
NORAD_CAT_ID   = 67935
ELEMENT_SET_NO = 999
REV_AT_EPOCH   = 327
BSTAR          = .25007E-4
MEAN_MOTION_DOT = .4732E-4
MEAN_MOTION_DDOT = 0

CCSDS_OMM_VERS = 2.0
CREATION_DATE  = 
ORIGINATOR     = 

OBJECT_NAME    = STARLINK-36848
OBJECT_ID      = 2026-037E
CENTER_NAME    = EARTH
REF_FRAME      = TEME
TIME_SYSTEM    = UTC
MEAN_ELEMENT_THEORY = SGP/SGP4

EPOCH          = 2026-03-10T04:00:01.999584
MEAN_MOTION    = 15.82018774
ECCENTRICITY   = .0001662
INCLINATION    = 42.9987
RA_OF_ASC_NODE = 195.6000
ARG_OF_PERICENTER = 273.6794
MEAN_ANOMALY   = 219.2306

EPHEMERIS_TYPE = 0
CLASSIFICATION_TYPE = U
NORAD_CAT_ID   = 67936
ELEMENT_SET_NO = 999
REV_AT_EPOCH   = 327
BSTAR          = -.19534E-3
MEAN_MOTION_DOT = -.41474E-3
MEAN_MOTION_DDOT = 0

CCSDS_OMM_VERS = 2.0
CREATION_DATE  = 
ORIGINATOR     = 

OBJECT_NAME    = STARLINK-36370
OBJECT_ID      = 2026-037F
CENTER_NAME    = EARTH
REF_FRAME      = TEME
TIME_SYSTEM    = UTC
MEAN_ELEMENT_THEORY = SGP/SGP4

EPOCH          = 2026-03-10T04:00:01.999584
MEAN_MOTION    = 15.82001506
ECCENTRICITY   = .0002052
INCLINATION    = 42.9988
RA_OF_ASC_NODE = 195.6121
ARG_OF_PERICENTER = 293.1048
MEAN_ANOMALY   = 195.5347

EPHEMERIS_TYPE = 0
CLASSIFICATION_TYPE = U
NORAD_CAT_ID   = 67937
ELEMENT_SET_NO = 999
REV_AT_EPOCH   = 327
BSTAR          = -.1225E-4
MEAN_MOTION_DOT = -.3111E-4
MEAN_MOTION_DDOT = 0

CCSDS_OMM_VERS = 2.0
CREATION_DATE  = 
ORIGINATOR     = 

OBJECT_NAME    = STARLINK-36371
OBJECT_ID      = 2026-037G
CENTER_NAME    = EARTH
REF_FRAME      = TEME
TIME_SYSTEM    = UTC
MEAN_ELEMENT_THEORY = SGP/SGP4

EPOCH          = 2026-03-10T04:00:01.999584
MEAN_MOTION    = 15.82010594
ECCENTRICITY   = .0001764
INCLINATION    = 42.9985
RA_OF_ASC_NODE = 195.5888
ARG_OF_PERICENTER = 250.0167
MEAN_ANOMALY   = 247.1805

EPHEMERIS_TYPE = 0
CLASSIFICATION_TYPE = U
NORAD_CAT_ID   = 67938
ELEMENT_SET_NO = 999
REV_AT_EPOCH   = 327
BSTAR          = -.21658E-3
MEAN_MOTION_DOT = -.45886E-3
MEAN_MOTION_DDOT = 0

CCSDS_OMM_VERS = 2.0
CREATION_DATE  = 
ORIGINATOR     = 

OBJECT_NAME    = STARLINK-36246
OBJECT_ID      = 2026-037H
CENTER_NAME    = EARTH
REF_FRAME      = TEME
TIME_SYSTEM    = UTC
MEAN_ELEMENT_THEORY = SGP/SGP4

EPOCH          = 2026-03-10T04:00:01.999584
MEAN_MOTION    = 15.82022399
ECCENTRICITY   = .0002043
INCLINATION    = 42.9987
RA_OF_ASC_NODE = 195.5783
ARG_OF_PERICENTER = 274.7577
MEAN_ANOMALY   = 226.6852

EPHEMERIS_TYPE = 0
CLASSIFICATION_TYPE = U
NORAD_CAT_ID   = 67939
ELEMENT_SET_NO = 999
REV_AT_EPOCH   = 318
BSTAR          = -.14272E-3
MEAN_MOTION_DOT = -.30491E-3
MEAN_MOTION_DDOT = 0

CCSDS_OMM_VERS = 2.0
CREATION_DATE  = 
ORIGINATOR     = 

OBJECT_NAME    = STARLINK-36907
OBJECT_ID      = 2026-037J
CENTER_NAME    = EARTH
REF_FRAME      = TEME
TIME_SYSTEM    = UTC
MEAN_ELEMENT_THEORY = SGP/SGP4

EPOCH          = 2026-03-10T04:00:01.999584
MEAN_MOTION    = 15.82019489
ECCENTRICITY   = .0001435
INCLINATION    = 42.9987
RA_OF_ASC_NODE = 195.5453
ARG_OF_PERICENTER = 274.4870
MEAN_ANOMALY   = 239.7854

EPHEMERIS_TYPE = 0
CLASSIFICATION_TYPE = U
NORAD_CAT_ID   = 67940
ELEMENT_SET_NO = 999
REV_AT_EPOCH   = 327
BSTAR          = -.16931E-3
MEAN_MOTION_DOT = -.36041E-3
MEAN_MOTION_DDOT = 0

CCSDS_OMM_VERS = 2.0
CREATION_DATE  = 
ORIGINATOR     = 

OBJECT_NAME    = STARLINK-36927
OBJECT_ID      = 2026-037K
CENTER_NAME    = EARTH
REF_FRAME      = TEME
TIME_SYSTEM    = UTC
MEAN_ELEMENT_THEORY = SGP/SGP4

EPOCH          = 2026-03-10T04:00:01.999584
MEAN_MOTION    = 15.82005345
ECCENTRICITY   = .0001725
INCLINATION    = 42.9987
RA_OF_ASC_NODE = 195.5237
ARG_OF_PERICENTER = 278.3332
MEAN_ANOMALY   = 244.4921

EPHEMERIS_TYPE = 0
CLASSIFICATION_TYPE = U
NORAD_CAT_ID   = 67941
ELEMENT_SET_NO = 999
REV_AT_EPOCH   = 327
BSTAR          = -.11467E-3
MEAN_MOTION_DOT = -.24598E-3
MEAN_MOTION_DDOT = 0

CCSDS_OMM_VERS = 2.0
CREATION_DATE  = 
ORIGINATOR     = 

OBJECT_NAME    = STARLINK-36914
OBJECT_ID      = 2026-037L
CENTER_NAME    = EARTH
REF_FRAME      = TEME
TIME_SYSTEM    = UTC
MEAN_ELEMENT_THEORY = SGP/SGP4

EPOCH          = 2026-03-10T04:00:01.999584
MEAN_MOTION    = 15.82002734
ECCENTRICITY   = .0002055
INCLINATION    = 42.9986
RA_OF_ASC_NODE = 195.5671
ARG_OF_PERICENTER = 259.8638
MEAN_ANOMALY   = 245.8655

EPHEMERIS_TYPE = 0
CLASSIFICATION_TYPE = U
NORAD_CAT_ID   = 67942
ELEMENT_SET_NO = 999
REV_AT_EPOCH   = 327
BSTAR          = -.90239E-4
MEAN_MOTION_DOT = -.19482E-3
MEAN_MOTION_DDOT = 0

CCSDS_OMM_VERS = 2.0
CREATION_DATE  = 
ORIGINATOR     = 

OBJECT_NAME    = STARLINK-36851
OBJECT_ID      = 2026-037M
CENTER_NAME    = EARTH
REF_FRAME      = TEME
TIME_SYSTEM    = UTC
MEAN_ELEMENT_THEORY = SGP/SGP4

EPOCH          = 2026-03-10T04:00:01.999584
MEAN_MOTION    = 15.82004367
ECCENTRICITY   = .0001743
INCLINATION    = 42.9989
RA_OF_ASC_NODE = 195.5563
ARG_OF_PERICENTER = 263.0980
MEAN_ANOMALY   = 246.9086

EPHEMERIS_TYPE = 0
CLASSIFICATION_TYPE = U
NORAD_CAT_ID   = 67943
ELEMENT_SET_NO = 999
REV_AT_EPOCH   = 327
BSTAR          = -.90788E-4
MEAN_MOTION_DOT = -.19597E-3
MEAN_MOTION_DDOT = 0

CCSDS_OMM_VERS = 2.0
CREATION_DATE  = 
ORIGINATOR     = 

OBJECT_NAME    = STARLINK-36892
OBJECT_ID      = 2026-037N
CENTER_NAME    = EARTH
REF_FRAME      = TEME
TIME_SYSTEM    = UTC
MEAN_ELEMENT_THEORY = SGP/SGP4

EPOCH          = 2026-03-10T04:00:01.999584
MEAN_MOTION    = 15.82037022
ECCENTRICITY   = .0002033
INCLINATION    = 42.9986
RA_OF_ASC_NODE = 195.5351
ARG_OF_PERICENTER = 280.4619
MEAN_ANOMALY   = 238.0891

EPHEMERIS_TYPE = 0
CLASSIFICATION_TYPE = U
NORAD_CAT_ID   = 67944
ELEMENT_SET_NO = 999
REV_AT_EPOCH   = 327
BSTAR          = -.39976E-3
MEAN_MOTION_DOT = -.83987E-3
MEAN_MOTION_DDOT = 0

CCSDS_OMM_VERS = 2.0
CREATION_DATE  = 
ORIGINATOR     = 

OBJECT_NAME    = STARLINK-36908
OBJECT_ID      = 2026-037P
CENTER_NAME    = EARTH
REF_FRAME      = TEME
TIME_SYSTEM    = UTC
MEAN_ELEMENT_THEORY = SGP/SGP4

EPOCH          = 2026-03-10T04:00:01.999584
MEAN_MOTION    = 15.82016292
ECCENTRICITY   = .0001728
INCLINATION    = 42.9987
RA_OF_ASC_NODE = 195.5130
ARG_OF_PERICENTER = 268.3125
MEAN_ANOMALY   = 258.7843

EPHEMERIS_TYPE = 0
CLASSIFICATION_TYPE = U
NORAD_CAT_ID   = 67945
ELEMENT_SET_NO = 999
REV_AT_EPOCH   = 327
BSTAR          = -.75648E-4
MEAN_MOTION_DOT = -.16432E-3
MEAN_MOTION_DDOT = 0

